GLOBALSTAR M023         
1 25621U 99004A   24318.56293881 -.00000022  00000+0  45798-3 0  9998
2 25621  52.0125 350.0172 0010025  12.7680 151.9765 12.62482724188495
GLOBALSTAR M040         
1 25622U 99004B   24318.53298206 -.00000043  00000+0  33732-3 0  9990
2 25622  51.9936 353.9397 0000496 277.2391 247.1908 12.61990238188022
GLOBALSTAR M036         
1 25623U 99004C   24318.63626307 -.00000068  00000+0  21756-3 0  9999
2 25623  51.9961  88.4563 0010591   3.8605  10.2923 11.86580521153398
GLOBALSTAR M038         
1 25624U 99004D   24318.56231521 -.00000044  00000+0  42182-3 0  9992
2 25624  51.9990 332.5412 0001777 331.6465 180.2985 12.32513533175783
GLOBALSTAR M022         
1 25649U 99012A   24318.53197888  .00000001  00000+0  10551-2 0  9998
2 25649  52.0005 157.1480 0003489  97.3105 299.2389 12.02491388150438
GLOBALSTAR M041         
1 25650U 99012B   24318.46697914 -.00000053  00000+0  41339-3 0  9994
2 25650  52.0048  32.1978 0001990 247.0254 113.0372 11.96661034152453
GLOBALSTAR M046         
1 25651U 99012C   24318.55868736 -.00000151  00000+0 -69130-3 0  9996
2 25651  52.0031 115.0780 0002687 157.2781 291.2573 12.09401405157578
GLOBALSTAR M037         
1 25652U 99012D   24318.59326976 -.00000028  00000+0  42070-3 0  9992
2 25652  51.9980 120.6183 0002928  81.2745   4.1937 12.62425518184040
